EVENT_NAME: CENTRAL_TURKEY
EVENT_ID: INT-20230206_0000008
EVENT_DATE_YYYYMMDD: 20230206
EVENT_TIME_HHMMSS: 011736
EVENT_LATITUDE_DEGREE: 37.1700
EVENT_LONGITUDE_DEGREE: 37.0800
EVENT_DEPTH_KM: 20.0
HYPOCENTER_REFERENCE: EMSC-CSEM
MAGNITUDE_W: 7.8
MAGNITUDE_W_REFERENCE: EMSC-CSEM
MAGNITUDE_L: 
MAGNITUDE_L_REFERENCE: 
FOCAL_MECHANISM: Strike-slip faulting
NETWORK: TK
STATION_CODE: 4612
STATION_NAME: None
STATION_LATITUDE_DEGREE: 38.023950
STATION_LONGITUDE_DEGREE: 36.481870
STATION_ELEVATION_M: 1340
LOCATION: 
SENSOR_DEPTH_M: 0.0
VS30_M/S: 246
SITE_CLASSIFICATION_EC8: C
MORPHOLOGIC_CLASSIFICATION: 
EPICENTRAL_DISTANCE_KM: 108.5
EARTHQUAKE_BACKAZIMUTH_DEGREE: 331.1
DATE_TIME_FIRST_SAMPLE_YYYYMMDD_HHMMSS: 20230206_011731.480
DATE_TIME_FIRST_SAMPLE_PRECISION: milliseconds
SAMPLING_INTERVAL_S: 0.005000
NDATA: 25000
DURATION_S: 125.000
STREAM: HNZ
UNITS: cm
INSTRUMENT: HN
INSTRUMENT_ANALOG/DIGITAL: D
INSTRUMENTAL_FREQUENCY_HZ: 
INSTRUMENTAL_DAMPING: 
FULL_SCALE_G: 
N_BIT_DIGITAL_CONVERTER: 
PGD_CM: -4.378489
TIME_PGD_S: 52.250000
BASELINE_CORRECTION: BASELINE REMOVED
FILTER_TYPE: BUTTERWORTH
FILTER_ORDER: 2
LOW_CUT_FREQUENCY_HZ: 0.030
HIGH_CUT_FREQUENCY_HZ: 40.000
LATE/NORMAL_TRIGGERED: NT
DATABASE_VERSION: 0.5
HEADER_FORMAT: DYNA 1.2
DATA_TYPE: DISPLACEMENT
PROCESSING: manual (Paolucci et al., 2011)
DATA_TIMESTAMP_YYYYMMDD_HHMMSS: 20230522_192049.200
DATA_LICENSE: D (network default license)
DATA_CITATION: Luzi L., Lanzano G., Felicetta C., D?Amico M. C., Russo E., Sgobba S., Pacor, F., & ORFEUS Working Group 5 (2020). Engineering Strong Motion Database (ESM) (Version 2.0). Istituto Nazionale di Geofisica e Vulcanologia (INGV). https://doi.org/10.13127/ESM.2
DATA_CREATOR: ESM working group
ORIGINAL_DATA_MEDIATOR_CITATION: afad
ORIGINAL_DATA_MEDIATOR: afad
ORIGINAL_DATA_CREATOR_CITATION: Disaster And Emergency Management Authority. (1973). Turkish National Strong Motion Network. Department of Earthquake, Disaster and Emergency Management Authority. https://doi.org/10.7914/SN/TK http://www.fdsn.org/networks/detail/TK/
ORIGINAL_DATA_CREATOR: network: TK (Turkish National Strong Motion Network (TNSMN)); owner: Disaster and Emergency Management Authority (AFAD)
USER1: 
USER2: 
USER3: 
USER4: 
USER5: 
[...]
-3.073158e+00
-3.076442e+00
-3.080213e+00
-3.084470e+00
-3.089180e+00
-3.094293e+00
-3.099771e+00
-3.105617e+00
-3.111889e+00
-3.118679e+00
-3.126084e+00
-3.134186e+00
-3.143040e+00
-3.152664e+00
-3.163032e+00
-3.174066e+00
-3.185642e+00
-3.197603e+00
-3.209785e+00
-3.222032e+00
-3.234222e+00
-3.246283e+00
-3.258208e+00
-3.270040e+00
-3.281838e+00
-3.293641e+00
-3.305435e+00
-3.317147e+00
-3.328666e+00
-3.339875e+00
-3.350683e+00
-3.361022e+00
-3.370833e+00
-3.380054e+00
-3.388619e+00
-3.396475e+00
-3.403610e+00
-3.410070e+00
-3.415966e+00
-3.421423e+00
-3.426519e+00
-3.431223e+00
-3.435376e+00
-3.438749e+00
-3.441131e+00
-3.442404e+00
-3.442563e+00
-3.441687e+00
-3.439885e+00
-3.437243e+00
-3.433809e+00
-3.429601e+00
-3.424634e+00
-3.418942e+00
-3.412578e+00
-3.405625e+00
-3.398184e+00
-3.390376e+00
-3.382302e+00
-3.374004e+00
-3.365438e+00
-3.356507e+00
-3.347137e+00
-3.337351e+00
-3.327283e+00
-3.317117e+00
-3.307000e+00
-3.296996e+00
-3.287100e+00
-3.277288e+00
-3.267566e+00
-3.257975e+00
-3.248558e+00
-3.239324e+00
-3.230224e+00
-3.221158e+00
-3.212000e+00
-3.202617e+00
-3.192887e+00
-3.182718e+00
-3.172062e+00
-3.160920e+00
-3.149326e+00
-3.137317e+00
-3.124935e+00
-3.112228e+00
-3.099274e+00
-3.086159e+00
-3.072960e+00
-3.059729e+00
-3.046511e+00
-3.033360e+00
-3.020344e+00
-3.007519e+00
-2.994902e+00
-2.982446e+00
-2.970064e+00
-2.957661e+00
-2.945177e+00
-2.932617e+00
-2.920054e+00
-2.907599e+00
-2.895370e+00
-2.883468e+00
-2.871975e+00
-2.860951e+00
-2.850421e+00
-2.840352e+00
-2.830651e+00
-2.821211e+00
-2.811957e+00
-2.802874e+00
-2.793998e+00
-2.785379e+00
-2.777064e+00
-2.769089e+00
-2.761493e+00
-2.754315e+00
-2.747581e+00
-2.741299e+00
-2.735458e+00
-2.730056e+00
-2.725108e+00
-2.720650e+00
-2.716734e+00
-2.713424e+00
-2.710789e+00
-2.708880e+00
-2.707706e+00
-2.707251e+00
-2.707500e+00
-2.708483e+00
-2.710267e+00
-2.712899e+00
-2.716340e+00
-2.720438e+00
-2.724974e+00
-2.729758e+00
-2.734708e+00
-2.739863e+00
-2.745321e+00
-2.751160e+00
-2.757373e+00
-2.763878e+00
-2.770562e+00
-2.777336e+00
-2.784170e+00
-2.791090e+00
-2.798152e+00
-2.805418e+00
-2.812923e+00
-2.820673e+00
-2.828654e+00
-2.836835e+00
-2.845177e+00
-2.853639e+00
-2.862186e+00
-2.870802e+00
-2.879506e+00
-2.888339e+00
-2.897348e+00
-2.906558e+00
-2.915959e+00
-2.925515e+00
-2.935176e+00
-2.944889e+00
-2.954599e+00
-2.964243e+00
-2.973761e+00
-2.983110e+00
-2.992273e+00
-3.001240e+00
-3.009990e+00
-3.018487e+00
-3.026697e+00
-3.034611e+00
-3.042237e+00
-3.049563e+00
-3.056521e+00
-3.063008e+00
-3.068934e+00
-3.074275e+00
-3.079076e+00
-3.083421e+00
-3.087385e+00
-3.091016e+00
-3.094343e+00
-3.097391e+00
-3.100186e+00
-3.102760e+00
-3.105156e+00
-3.107431e+00
-3.109658e+00
-3.111917e+00
-3.114273e+00
-3.116765e+00
-3.119401e+00
-3.122175e+00
-3.125083e+00
-3.128117e+00
-3.131260e+00
-3.134473e+00
-3.137685e+00
-3.140808e+00
-3.143755e+00
-3.146466e+00
-3.148924e+00
-3.151148e+00
-3.153177e+00
-3.155045e+00
-3.156753e+00
-3.158272e+00
-3.159544e+00
-3.160523e+00
-3.161201e+00
-3.161638e+00
-3.161970e+00
-3.162384e+00
-3.163065e+00
-3.164149e+00
-3.165677e+00
-3.167586e+00
-3.169732e+00
-3.171937e+00
-3.174040e+00
-3.175943e+00
-3.177615e+00
-3.179077e+00
-3.180368e+00
-3.181527e+00
-3.182580e+00
-3.183537e+00
-3.184374e+00
-3.185025e+00
-3.185394e+00
-3.185386e+00
-3.184948e+00
-3.184069e+00
-3.182774e+00
-3.181113e+00
-3.179156e+00
-3.176979e+00
-3.174636e+00
-3.172141e+00
-3.169472e+00
-3.166605e+00
-3.163566e+00
-3.160457e+00
-3.157449e+00
-3.154724e+00
-3.152414e+00
-3.150578e+00
-3.149217e+00
-3.148331e+00
-3.147954e+00
-3.148149e+00
-3.148979e+00
-3.150493e+00
-3.152740e+00
-3.155771e+00
-3.159639e+00
-3.164366e+00
-3.169931e+00
-3.176274e+00
-3.183337e+00
-3.191078e+00
-3.199464e+00
-3.208430e+00
-3.217860e+00
-3.227598e+00
-3.237498e+00
-3.247459e+00
-3.257434e+00
-3.267411e+00
-3.277389e+00
-3.287362e+00
-3.297318e+00
-3.307267e+00
-3.317246e+00
-3.327285e+00
-3.337354e+00
-3.347343e+00
-3.357081e+00
-3.366414e+00
-3.375281e+00
-3.383728e+00
-3.391865e+00
-3.399787e+00
-3.407524e+00
-3.415043e+00
-3.422300e+00
-3.429292e+00
-3.436064e+00
-3.442667e+00
-3.449103e+00
-3.455303e+00
-3.461138e+00
-3.466465e+00
-3.471175e+00
-3.475236e+00
-3.478705e+00
-3.481709e+00
-3.484393e+00
-3.486862e+00
-3.489154e+00
-3.491259e+00
-3.493173e+00
-3.494909e+00
-3.496494e+00
-3.497930e+00
-3.499172e+00
-3.500141e+00
-3.500742e+00
-3.500877e+00
-3.500445e+00
-3.499358e+00
-3.497557e+00
-3.495047e+00
-3.491892e+00
-3.488190e+00
-3.484042e+00
-3.479532e+00
-3.474732e+00
-3.469710e+00
-3.464534e+00
-3.459271e+00
-3.453975e+00
-3.448680e+00
-3.443392e+00
-3.438081e+00
-3.432701e+00
-3.427208e+00
-3.421598e+00
-3.415902e+00
-3.410185e+00
-3.404535e+00
-3.399062e+00
-3.393881e+00
-3.389105e+00
-3.384844e+00
-3.381209e+00
-3.378284e+00
-3.376101e+00
-3.374597e+00
-3.373622e+00
-3.372991e+00
-3.372555e+00
-3.372247e+00
-3.372082e+00
-3.372130e+00
-3.372466e+00
-3.373130e+00
-3.374113e+00
-3.375387e+00
-3.376933e+00
-3.378739e+00
-3.380768e+00
-3.382945e+00
-3.385159e+00
-3.387317e+00
-3.389383e+00
-3.391374e+00
-3.393333e+00
-3.395281e+00
-3.397200e+00
-3.399059e+00
-3.400843e+00
-3.402564e+00
-3.404257e+00
-3.405956e+00
-3.407698e+00
-3.409522e+00
-3.411487e+00
-3.413642e+00
-3.416009e+00
-3.418572e+00
-3.421298e+00
-3.424174e+00
-3.427229e+00
-3.430520e+00
-3.434105e+00
-3.438016e+00
-3.442261e+00
-3.446817e+00
-3.451647e+00
-3.456710e+00
-3.461979e+00
-3.467446e+00
-3.473096e+00
-3.478855e+00
-3.484556e+00
-3.489978e+00
-3.494915e+00
-3.499235e+00
-3.502894e+00
-3.505909e+00
-3.508324e+00
-3.510197e+00
-3.511595e+00
-3.512583e+00
-3.513188e+00
-3.513375e+00
-3.513048e+00
-3.512092e+00
-3.510419e+00
-3.507980e+00
-3.504761e+00
-3.500780e+00
-3.496088e+00
-3.490773e+00
-3.484938e+00
-3.478665e+00
-3.471982e+00
-3.464870e+00
-3.457299e+00
-3.449258e+00
-3.440770e+00
-3.431895e+00
-3.422716e+00
-3.413350e+00
-3.403940e+00
-3.394639e+00
-3.385579e+00
-3.376868e+00
-3.368593e+00
-3.360819e+00
-3.353583e+00
-3.346880e+00
-3.340666e+00
-3.334892e+00
-3.329531e+00
-3.324571e+00
-3.319981e+00
-3.315710e+00
-3.311686e+00
-3.307842e+00
-3.304114e+00
-3.300452e+00
-3.296815e+00
-3.293190e+00
-3.289594e+00
-3.286056e+00
-3.282584e+00
-3.279139e+00
-3.275640e+00
-3.271991e+00
-3.268123e+00
-3.264018e+00
-3.259710e+00
-3.255267e+00
-3.250762e+00
-3.246255e+00
-3.241785e+00
-3.237382e+00
-3.233067e+00
-3.228835e+00
-3.224644e+00
-3.220423e+00
-3.216106e+00
-3.211657e+00
-3.207080e+00
-3.202409e+00
-3.197687e+00
-3.192955e+00
-3.188249e+00
-3.183609e+00
-3.179091e+00
-3.174782e+00
-3.170794e+00
-3.167232e+00
-3.164163e+00
-3.161607e+00
-3.159572e+00
-3.158095e+00
-3.157260e+00
-3.157139e+00
-3.157722e+00
-3.158889e+00
-3.160437e+00
-3.162158e+00
-3.163899e+00
-3.165582e+00
-3.167176e+00
-3.168677e+00
-3.170088e+00
-3.171434e+00
-3.172770e+00
-3.174191e+00
-3.175810e+00
-3.177715e+00
-3.179934e+00
-3.182449e+00
-3.185227e+00
-3.188236e+00
-3.191458e+00
-3.194896e+00
-3.198592e+00
-3.202632e+00
-3.207120e+00
-3.212130e+00
-3.217650e+00
-3.223568e+00
-3.229717e+00
-3.235946e+00
-3.242202e+00
-3.248544e+00
-3.255105e+00
-3.262021e+00
-3.269363e+00
-3.277115e+00
-3.285196e+00
-3.293481e+00
-3.301839e+00
-3.310152e+00
-3.318328e+00
-3.326310e+00
-3.334072e+00
-3.341600e+00
-3.348867e+00
-3.355819e+00
-3.362379e+00
-3.368495e+00
-3.374179e+00
-3.379521e+00
-3.384671e+00
-3.389805e+00
-3.395086e+00
-3.400643e+00
-3.406563e+00
-3.412886e+00
-3.419607e+00
-3.426654e+00
-3.433880e+00
-3.441080e+00
-3.448042e+00
-3.454609e+00
-3.460707e+00
-3.466310e+00
-3.471375e+00
-3.475800e+00
-3.479443e+00
-3.482184e+00
-3.483996e+00
-3.484953e+00
-3.485190e+00
-3.484834e+00
-3.483935e+00
-3.482457e+00
-3.480311e+00
-3.477404e+00
-3.473690e+00
-3.469199e+00
-3.464047e+00
-3.458417e+00
-3.452514e+00
-3.446499e+00
-3.440432e+00
-3.434270e+00
-3.427908e+00
-3.421245e+00
-3.414224e+00
-3.406817e+00
-3.399008e+00
-3.390794e+00
-3.382225e+00
-3.373417e+00
-3.364541e+00
-3.355767e+00
-3.347198e+00
-3.338858e+00
-3.330710e+00
-3.322707e+00
-3.314830e+00
-3.307104e+00
-3.299579e+00
-3.292299e+00
-3.285281e+00
-3.278517e+00
-3.271997e+00
-3.265734e+00
-3.259772e+00
-3.254185e+00
-3.249053e+00
-3.244450e+00
-3.240423e+00
-3.236985e+00
-3.234117e+00
-3.231780e+00
-3.229931e+00
-3.228525e+00
-3.227503e+00
-3.226781e+00
-3.226248e+00
-3.225799e+00
-3.225364e+00
-3.224929e+00
-3.224539e+00
-3.224286e+00
-3.224293e+00
-3.224689e+00
-3.225577e+00
-3.227016e+00
-3.229015e+00
-3.231560e+00
-3.234637e+00
-3.238229e+00
-3.242306e+00
-3.246820e+00
-3.251721e+00
-3.256994e+00
-3.262672e+00
-3.268812e+00
-3.275467e+00
-3.282676e+00
-3.290479e+00
-3.298922e+00
-3.308041e+00
-3.317842e+00
-3.328280e+00
-3.339257e+00
-3.350651e+00
-3.362360e+00
-3.374343e+00
-3.386613e+00
-3.399207e+00
-3.412152e+00
-3.425445e+00
-3.439047e+00
-3.452894e+00
-3.466923e+00
-3.481092e+00
-3.495383e+00
-3.509789e+00
-3.524298e+00
-3.538884e+00
-3.553531e+00
-3.568234e+00
-3.582975e+00
-3.597691e+00
-3.612264e+00
-3.626535e+00
-3.640347e+00
-3.653583e+00
-3.666191e+00
-3.678189e+00
-3.689637e+00
-3.700591e+00
-3.711064e+00
-3.721004e+00
-3.730309e+00
-3.738870e+00
-3.746610e+00
-3.753522e+00
-3.759675e+00
-3.765194e+00
-3.770226e+00
-3.774906e+00
-3.779339e+00
-3.783587e+00
-3.787678e+00
-3.791624e+00
-3.795448e+00
-3.799207e+00
-3.802989e+00
-3.806883e+00
-3.810924e+00
-3.815079e+00
-3.819267e+00
-3.823404e+00
-3.827425e+00
-3.831288e+00
-3.834965e+00
-3.838449e+00
-3.841749e+00
-3.844873e+00
-3.847803e+00
-3.850480e+00
-3.852824e+00
-3.854760e+00
-3.856244e+00
-3.857270e+00
-3.857884e+00
-3.858168e+00
-3.858211e+00
-3.858061e+00
-3.857694e+00
-3.857011e+00
-3.855885e+00
-3.854213e+00
-3.851946e+00
-3.849092e+00
-3.845674e+00
-3.841705e+00
-3.837177e+00
-3.832095e+00
-3.826499e+00
-3.820485e+00
-3.814160e+00
-3.807605e+00
-3.800863e+00
-3.793950e+00
-3.786894e+00
-3.779741e+00
-3.772551e+00
-3.765378e+00
-3.758290e+00
-3.751390e+00
-3.744809e+00
-3.738676e+00
-3.733084e+00
-3.728067e+00
-3.723617e+00
-3.719703e+00
-3.716276e+00
-3.713269e+00
-3.710608e+00
-3.708233e+00
-3.706115e+00
-3.704277e+00
-3.702791e+00
-3.701768e+00
-3.701325e+00
-3.701536e+00
-3.702414e+00
-3.703898e+00
-3.705884e+00
-3.708253e+00
-3.710902e+00
-3.713750e+00
-3.716749e+00
-3.719874e+00
-3.723126e+00
-3.726534e+00
-3.730155e+00
-3.734067e+00
-3.738345e+00
-3.743022e+00
-3.748077e+00
-3.753448e+00
-3.759083e+00
-3.764984e+00
-3.771197e+00
-3.777789e+00
-3.784806e+00
-3.792264e+00
-3.800166e+00
-3.808517e+00
-3.817315e+00
-3.826538e+00
-3.836160e+00
-3.846173e+00
-3.856611e+00
-3.867537e+00
-3.879013e+00
-3.891064e+00
-3.903679e+00
-3.916833e+00
-3.930519e+00
-3.944758e+00
-3.959584e+00
-3.975006e+00
-3.990961e+00
-4.007297e+00
-4.023793e+00
-4.040197e+00
-4.056261e+00
-4.071760e+00
-4.086520e+00
-4.100427e+00
-4.113427e+00
-4.125518e+00
-4.136727e+00
-4.147100e+00
-4.156718e+00
-4.165720e+00
-4.174328e+00
-4.182826e+00
-4.191478e+00
-4.200436e+00
-4.209687e+00
-4.219075e+00
-4.228389e+00
-4.237453e+00
-4.246159e+00
-4.254464e+00
-4.262350e+00
-4.269803e+00
-4.276811e+00
-4.283379e+00
-4.289536e+00
-4.295331e+00
-4.300822e+00
-4.306060e+00
-4.311066e+00
-4.315815e+00
-4.320243e+00
-4.324278e+00
-4.327893e+00
-4.331134e+00
-4.334115e+00
-4.336960e+00
-4.339755e+00
-4.342505e+00
-4.345144e+00
-4.347567e+00
-4.349697e+00
-4.351512e+00
-4.353033e+00
-4.354264e+00
-4.355153e+00
-4.355587e+00
-4.355457e+00
-4.354722e+00
-4.353427e+00
-4.351690e+00
-4.349673e+00
-4.347550e+00
-4.345471e+00
-4.343528e+00
-4.341733e+00
-4.340039e+00
-4.338381e+00
-4.336725e+00
-4.335079e+00
-4.333480e+00
-4.331959e+00
-4.330506e+00
-4.329068e+00
-4.327574e+00
-4.325973e+00
-4.324239e+00
-4.322350e+00
-4.320265e+00
-4.317937e+00
-4.315354e+00
-4.312564e+00
-4.309660e+00
-4.306742e+00
-4.303876e+00
-4.301086e+00
-4.298370e+00
-4.295719e+00
-4.293124e+00
-4.290579e+00
-4.288075e+00
-4.285598e+00
-4.283140e+00
-4.280702e+00
-4.278298e+00
-4.275940e+00
-4.273639e+00
-4.271416e+00
-4.269316e+00
-4.267396e+00
-4.265708e+00
-4.264287e+00
-4.263157e+00
-4.262339e+00
-4.261859e+00
-4.261725e+00
-4.261914e+00
-4.262395e+00
-4.263168e+00
-4.264285e+00
-4.265833e+00
-4.267915e+00
-4.270616e+00
-4.274001e+00
-4.278106e+00
-4.282927e+00
-4.288408e+00
-4.294451e+00
-4.300938e+00
-4.307754e+00
-4.314796e+00
-4.321969e+00
-4.329187e+00
-4.336366e+00
-4.343424e+00
-4.350259e+00
-4.356729e+00
-4.362651e+00
-4.367823e+00
-4.372066e+00
-4.375254e+00
-4.377347e+00
-4.378388e+00
-4.378489e+00
-4.377804e+00
-4.376472e+00
-4.374588e+00
-4.372182e+00
-4.369234e+00
-4.365698e+00
-4.361516e+00
-4.356634e+00
-4.351025e+00
-4.344718e+00
-4.337813e+00
-4.330442e+00
-4.322714e+00
-4.314665e+00
-4.306251e+00
-4.297391e+00
-4.288019e+00
-4.278138e+00
-4.267831e+00
-4.257222e+00
-4.246438e+00
-4.235579e+00
-4.224730e+00
-4.213985e+00
-4.203445e+00
-4.193174e+00
-4.183165e+00
-4.173362e+00
-4.163713e+00
-4.154210e+00
-4.144891e+00
-4.135803e+00
-4.126970e+00
-4.118386e+00
-4.110024e+00
-4.101855e+00
-4.093856e+00
-4.086012e+00
-4.078324e+00
-4.070801e+00
-4.063468e+00
-4.056389e+00
-4.049674e+00
-4.043457e+00
-4.037855e+00
-4.032948e+00
-4.028780e+00
-4.025391e+00
-4.022824e+00
-4.021090e+00
-4.020133e+00
-4.019818e+00
-4.019961e+00
-4.020388e+00
-4.020984e+00
-4.021711e+00
-4.022596e+00
-4.023687e+00
-4.025027e+00
-4.026632e+00
-4.028493e+00
-4.030587e+00
-4.032884e+00
-4.035353e+00
-4.037965e+00
-4.040708e+00
-4.043594e+00
-4.046673e+00
-4.050032e+00
-4.053761e+00
-4.057909e+00
-4.062457e+00
-4.067310e+00
-4.072328e+00
-4.077376e+00
-4.082356e+00
-4.087218e+00
-4.091937e+00
-4.096469e+00
-4.100719e+00
-4.104529e+00
-4.107741e+00
-4.110256e+00
-4.112075e+00
-4.113281e+00
-4.113984e+00
-4.114262e+00
-4.114143e+00
-4.113643e+00
-4.112797e+00
-4.111675e+00
-4.110357e+00
-4.108891e+00
-4.107281e+00
-4.105518e+00
-4.103612e+00
-4.101602e+00
-4.099519e+00
-4.097339e+00
-4.094989e+00
-4.092391e+00
-4.089498e+00
-4.086302e+00
-4.082814e+00
-4.079032e+00
-4.074928e+00
-4.070456e+00
-4.065543e+00
-4.060108e+00
-4.054095e+00
-4.047508e+00
-4.040435e+00
-4.033029e+00
-4.025474e+00
-4.017944e+00
-4.010563e+00
-4.003402e+00
-3.996483e+00
-3.989803e+00
-3.983363e+00
-3.977188e+00
-3.971321e+00
-3.965799e+00
-3.960640e+00
-3.955824e+00
-3.951306e+00
-3.947027e+00
-3.942942e+00
-3.939029e+00
-3.935279e+00
-3.931665e+00
-3.928132e+00
-3.924601e+00
-3.920994e+00
-3.917264e+00
-3.913424e+00
-3.909545e+00
-3.905730e+00
-3.902078e+00
-3.898664e+00
-3.895546e+00
-3.892779e+00
-3.890421e+00
-3.888506e+00
-3.887007e+00
-3.885837e+00
-3.884863e+00
-3.883946e+00
-3.882966e+00
-3.881824e+00
-3.880432e+00
-3.878688e+00
-3.876490e+00
-3.873755e+00
-3.870454e+00
-3.866608e+00
-3.862267e+00
-3.857474e+00
-3.852250e+00
-3.846591e+00
-3.840480e+00
-3.833889e+00
-3.826785e+00
-3.819139e+00
-3.810947e+00
-3.802243e+00
-3.793096e+00
-3.783604e+00
-3.773880e+00
-3.764034e+00
-3.754162e+00
-3.744328e+00
-3.734545e+00
-3.724767e+00
-3.714889e+00
-3.704777e+00
-3.694310e+00
-3.683426e+00
-3.672151e+00
-3.660596e+00
-3.648914e+00
-3.637224e+00
-3.625575e+00
-3.613950e+00
-3.602309e+00
-3.590621e+00
-3.578871e+00
-3.567047e+00
-3.555147e+00
-3.543198e+00
-3.531280e+00
-3.519490e+00
-3.507899e+00
-3.496518e+00
-3.485306e+00
-3.474211e+00
-3.463193e+00
-3.452216e+00
-3.441216e+00
-3.430090e+00
-3.418712e+00
-3.406984e+00
-3.394875e+00
-3.382430e+00
-3.369749e+00
-3.356961e+00
-3.344184e+00
-3.331496e+00
-3.318924e+00
-3.306482e+00
-3.294200e+00
-3.282119e+00
-3.270261e+00
-3.258599e+00
-3.247057e+00
-3.235551e+00
-3.224032e+00
-3.212496e+00
-3.200972e+00
-3.189493e+00
-3.178088e+00
-3.166786e+00
-3.155617e+00
-3.144612e+00
-3.133804e+00
-3.123239e+00
-3.112985e+00
-3.103122e+00
-3.093716e+00
-3.084790e+00
-3.076322e+00
-3.068268e+00
-3.060593e+00
-3.053261e+00
-3.046217e+00
-3.039379e+00
-3.032651e+00
-3.025945e+00
-3.019206e+00
-3.012420e+00
-3.005606e+00
-2.998772e+00
-2.991874e+00
-2.984804e+00
-2.977419e+00
-2.969588e+00
-2.961250e+00
-2.952436e+00
-2.943257e+00
-2.933862e+00
-2.924384e+00
-2.914885e+00
-2.905336e+00
-2.895614e+00
-2.885542e+00
-2.874919e+00
-2.863561e+00
-2.851337e+00
-2.838196e+00
-2.824190e+00
-2.809462e+00
-2.794198e+00
-2.778578e+00
-2.762755e+00
-2.746859e+00
-2.731019e+00
-2.715361e+00
-2.699986e+00
-2.684952e+00
-2.670264e+00
-2.655905e+00
-2.641854e+00
-2.628114e+00
-2.614718e+00
-2.601709e+00
-2.589101e+00
-2.576858e+00
-2.564917e+00
-2.553236e+00
-2.541817e+00
-2.530694e+00
-2.519902e+00
-2.509434e+00
-2.499219e+00
-2.489139e+00
-2.479068e+00
-2.468922e+00
-2.458693e+00
-2.448445e+00
-2.438276e+00
-2.428280e+00
-2.418516e+00
-2.409015e+00
-2.399785e+00
-2.390823e+00
-2.382127e+00
-2.373691e+00
-2.365505e+00
-2.357549e+00
-2.349820e+00
-2.342347e+00
-2.335205e+00
-2.328488e+00
-2.322285e+00
-2.316637e+00
-2.311526e+00
-2.306863e+00
-2.302493e+00
-2.298202e+00
-2.293761e+00
-2.288970e+00
-2.283707e+00
-2.277942e+00
-2.271709e+00
-2.265055e+00
-2.258005e+00
-2.250554e+00
-2.242680e+00
-2.234368e+00
-2.225609e+00
-2.216405e+00
-2.206778e+00
-2.196776e+00
-2.186453e+00
-2.175857e+00
-2.165012e+00
-2.153932e+00
-2.142634e+00
-2.131145e+00
-2.119487e+00
-2.107652e+00
-2.095611e+00
-2.083333e+00
-2.070806e+00
-2.058045e+00
-2.045084e+00
-2.031955e+00
-2.018677e+00
-2.005262e+00
-1.991735e+00
-1.978159e+00
-1.964640e+00
-1.951311e+00
-1.938288e+00
-1.925640e+00
-1.913375e+00
-1.901465e+00
-1.889865e+00
-1.878547e+00
-1.867485e+00
-1.856654e+00
-1.846019e+00
-1.835542e+00
-1.825181e+00
-1.814898e+00
-1.804654e+00
-1.794415e+00
-1.784151e+00
-1.773839e+00
-1.763455e+00
-1.752971e+00
-1.742354e+00
-1.731581e+00
-1.720648e+00
-1.709583e+00
-1.698433e+00
-1.687256e+00
-1.676114e+00
-1.665067e+00
-1.654163e+00
-1.643429e+00
-1.632881e+00
-1.622522e+00
-1.612341e+00
-1.602290e+00
-1.592279e+00
-1.582179e+00
-1.571851e+00
-1.561184e+00
-1.550113e+00
