EVENT_NAME: CENTRAL_TURKEY
EVENT_ID: INT-20230206_0000008
EVENT_DATE_YYYYMMDD: 20230206
EVENT_TIME_HHMMSS: 011736
EVENT_LATITUDE_DEGREE: 37.1700
EVENT_LONGITUDE_DEGREE: 37.0800
EVENT_DEPTH_KM: 20.0
HYPOCENTER_REFERENCE: EMSC-CSEM
MAGNITUDE_W: 7.8
MAGNITUDE_W_REFERENCE: EMSC-CSEM
MAGNITUDE_L: 
MAGNITUDE_L_REFERENCE: 
FOCAL_MECHANISM: Strike-slip faulting
NETWORK: TK
STATION_CODE: 4612
STATION_NAME: None
STATION_LATITUDE_DEGREE: 38.023950
STATION_LONGITUDE_DEGREE: 36.481870
STATION_ELEVATION_M: 1340
LOCATION: 
SENSOR_DEPTH_M: 0.0
VS30_M/S: 246
SITE_CLASSIFICATION_EC8: C
MORPHOLOGIC_CLASSIFICATION: 
EPICENTRAL_DISTANCE_KM: 108.5
EARTHQUAKE_BACKAZIMUTH_DEGREE: 331.1
DATE_TIME_FIRST_SAMPLE_YYYYMMDD_HHMMSS: 20230206_011731.480
DATE_TIME_FIRST_SAMPLE_PRECISION: milliseconds
SAMPLING_INTERVAL_S: 0.005000
NDATA: 25000
DURATION_S: 125.000
STREAM: HNE
UNITS: cm
INSTRUMENT: HN
INSTRUMENT_ANALOG/DIGITAL: D
INSTRUMENTAL_FREQUENCY_HZ: 
INSTRUMENTAL_DAMPING: 
FULL_SCALE_G: 
N_BIT_DIGITAL_CONVERTER: 
PGD_CM: 9.401657
TIME_PGD_S: 59.355000
BASELINE_CORRECTION: BASELINE REMOVED
FILTER_TYPE: BUTTERWORTH
FILTER_ORDER: 2
LOW_CUT_FREQUENCY_HZ: 0.030
HIGH_CUT_FREQUENCY_HZ: 40.000
LATE/NORMAL_TRIGGERED: NT
DATABASE_VERSION: 0.5
HEADER_FORMAT: DYNA 1.2
DATA_TYPE: DISPLACEMENT
PROCESSING: manual (Paolucci et al., 2011)
DATA_TIMESTAMP_YYYYMMDD_HHMMSS: 20230522_192048.873
DATA_LICENSE: D (network default license)
DATA_CITATION: Luzi L., Lanzano G., Felicetta C., D?Amico M. C., Russo E., Sgobba S., Pacor, F., & ORFEUS Working Group 5 (2020). Engineering Strong Motion Database (ESM) (Version 2.0). Istituto Nazionale di Geofisica e Vulcanologia (INGV). https://doi.org/10.13127/ESM.2
DATA_CREATOR: ESM working group
ORIGINAL_DATA_MEDIATOR_CITATION: afad
ORIGINAL_DATA_MEDIATOR: afad
ORIGINAL_DATA_CREATOR_CITATION: Disaster And Emergency Management Authority. (1973). Turkish National Strong Motion Network. Department of Earthquake, Disaster and Emergency Management Authority. https://doi.org/10.7914/SN/TK http://www.fdsn.org/networks/detail/TK/
ORIGINAL_DATA_CREATOR: network: TK (Turkish National Strong Motion Network (TNSMN)); owner: Disaster and Emergency Management Authority (AFAD)
USER1: 
USER2: 
USER3: 
USER4: 
USER5: 
[...]
-6.713433e+00
-6.724091e+00
-6.734187e+00
-6.743806e+00
-6.753067e+00
-6.762118e+00
-6.771114e+00
-6.780217e+00
-6.789582e+00
-6.799353e+00
-6.809656e+00
-6.820600e+00
-6.832277e+00
-6.844769e+00
-6.858143e+00
-6.872440e+00
-6.887666e+00
-6.903777e+00
-6.920684e+00
-6.938255e+00
-6.956336e+00
-6.974769e+00
-6.993410e+00
-7.012138e+00
-7.030869e+00
-7.049567e+00
-7.068251e+00
-7.087001e+00
-7.105958e+00
-7.125299e+00
-7.145220e+00
-7.165911e+00
-7.187552e+00
-7.210297e+00
-7.234275e+00
-7.259582e+00
-7.286274e+00
-7.314359e+00
-7.343791e+00
-7.374470e+00
-7.406244e+00
-7.438916e+00
-7.472246e+00
-7.505970e+00
-7.539815e+00
-7.573522e+00
-7.606859e+00
-7.639635e+00
-7.671704e+00
-7.702965e+00
-7.733352e+00
-7.762827e+00
-7.791361e+00
-7.818934e+00
-7.845514e+00
-7.871052e+00
-7.895471e+00
-7.918664e+00
-7.940495e+00
-7.960815e+00
-7.979464e+00
-7.996284e+00
-8.011121e+00
-8.023830e+00
-8.034270e+00
-8.042308e+00
-8.047826e+00
-8.050721e+00
-8.050912e+00
-8.048341e+00
-8.042962e+00
-8.034745e+00
-8.023660e+00
-8.009683e+00
-7.992788e+00
-7.972946e+00
-7.950123e+00
-7.924287e+00
-7.895412e+00
-7.863488e+00
-7.828526e+00
-7.790562e+00
-7.749659e+00
-7.705898e+00
-7.659373e+00
-7.610177e+00
-7.558397e+00
-7.504112e+00
-7.447395e+00
-7.388318e+00
-7.326956e+00
-7.263409e+00
-7.197815e+00
-7.130359e+00
-7.061280e+00
-6.990869e+00
-6.919465e+00
-6.847445e+00
-6.775208e+00
-6.703161e+00
-6.631700e+00
-6.561198e+00
-6.492006e+00
-6.424446e+00
-6.358813e+00
-6.295362e+00
-6.234302e+00
-6.175787e+00
-6.119917e+00
-6.066743e+00
-6.016262e+00
-5.968427e+00
-5.923140e+00
-5.880256e+00
-5.839595e+00
-5.800951e+00
-5.764100e+00
-5.728807e+00
-5.694828e+00
-5.661915e+00
-5.629816e+00
-5.598274e+00
-5.567034e+00
-5.535852e+00
-5.504497e+00
-5.472765e+00
-5.440467e+00
-5.407433e+00
-5.373509e+00
-5.338564e+00
-5.302499e+00
-5.265261e+00
-5.226840e+00
-5.187259e+00
-5.146557e+00
-5.104774e+00
-5.061946e+00
-5.018112e+00
-4.973312e+00
-4.927598e+00
-4.881026e+00
-4.833647e+00
-4.785502e+00
-4.736616e+00
-4.686997e+00
-4.636644e+00
-4.585553e+00
-4.533719e+00
-4.481141e+00
-4.427820e+00
-4.373762e+00
-4.318984e+00
-4.263524e+00
-4.207446e+00
-4.150838e+00
-4.093809e+00
-4.036479e+00
-3.978966e+00
-3.921385e+00
-3.863842e+00
-3.806431e+00
-3.749234e+00
-3.692316e+00
-3.635733e+00
-3.579536e+00
-3.523788e+00
-3.468565e+00
-3.413956e+00
-3.360051e+00
-3.306936e+00
-3.254677e+00
-3.203329e+00
-3.152935e+00
-3.103536e+00
-3.055180e+00
-3.007920e+00
-2.961824e+00
-2.916977e+00
-2.873490e+00
-2.831503e+00
-2.791178e+00
-2.752691e+00
-2.716219e+00
-2.681931e+00
-2.649985e+00
-2.620521e+00
-2.593652e+00
-2.569456e+00
-2.547969e+00
-2.529178e+00
-2.513023e+00
-2.499394e+00
-2.488133e+00
-2.479025e+00
-2.471800e+00
-2.466135e+00
-2.461660e+00
-2.457982e+00
-2.454709e+00
-2.451477e+00
-2.447976e+00
-2.443965e+00
-2.439294e+00
-2.433910e+00
-2.427865e+00
-2.421310e+00
-2.414467e+00
-2.407592e+00
-2.400933e+00
-2.394694e+00
-2.389017e+00
-2.383969e+00
-2.379546e+00
-2.375690e+00
-2.372318e+00
-2.369344e+00
-2.366698e+00
-2.364343e+00
-2.362276e+00
-2.360526e+00
-2.359144e+00
-2.358186e+00
-2.357696e+00
-2.357696e+00
-2.358181e+00
-2.359111e+00
-2.360420e+00
-2.362014e+00
-2.363783e+00
-2.365614e+00
-2.367400e+00
-2.369052e+00
-2.370503e+00
-2.371716e+00
-2.372690e+00
-2.373458e+00
-2.374092e+00
-2.374692e+00
-2.375377e+00
-2.376272e+00
-2.377507e+00
-2.379204e+00
-2.381483e+00
-2.384456e+00
-2.388223e+00
-2.392868e+00
-2.398454e+00
-2.405013e+00
-2.412543e+00
-2.421005e+00
-2.430329e+00
-2.440420e+00
-2.451160e+00
-2.462422e+00
-2.474078e+00
-2.486012e+00
-2.498137e+00
-2.510394e+00
-2.522752e+00
-2.535208e+00
-2.547770e+00
-2.560451e+00
-2.573256e+00
-2.586171e+00
-2.599159e+00
-2.612158e+00
-2.625089e+00
-2.637861e+00
-2.650381e+00
-2.662561e+00
-2.674318e+00
-2.685569e+00
-2.696228e+00
-2.706200e+00
-2.715374e+00
-2.723629e+00
-2.730830e+00
-2.736837e+00
-2.741513e+00
-2.744724e+00
-2.746349e+00
-2.746279e+00
-2.744424e+00
-2.740715e+00
-2.735102e+00
-2.727554e+00
-2.718055e+00
-2.706603e+00
-2.693209e+00
-2.677897e+00
-2.660701e+00
-2.641662e+00
-2.620829e+00
-2.598260e+00
-2.574026e+00
-2.548211e+00
-2.520914e+00
-2.492245e+00
-2.462331e+00
-2.431308e+00
-2.399328e+00
-2.366551e+00
-2.333139e+00
-2.299248e+00
-2.265022e+00
-2.230595e+00
-2.196090e+00
-2.161622e+00
-2.127306e+00
-2.093257e+00
-2.059590e+00
-2.026428e+00
-1.993901e+00
-1.962147e+00
-1.931311e+00
-1.901538e+00
-1.872969e+00
-1.845735e+00
-1.819949e+00
-1.795716e+00
-1.773129e+00
-1.752275e+00
-1.733232e+00
-1.716069e+00
-1.700837e+00
-1.687562e+00
-1.676237e+00
-1.666828e+00
-1.659269e+00
-1.653468e+00
-1.649318e+00
-1.646690e+00
-1.645438e+00
-1.645390e+00
-1.646346e+00
-1.648077e+00
-1.650331e+00
-1.652840e+00
-1.655331e+00
-1.657527e+00
-1.659152e+00
-1.659942e+00
-1.659655e+00
-1.658082e+00
-1.655060e+00
-1.650474e+00
-1.644272e+00
-1.636475e+00
-1.627180e+00
-1.616560e+00
-1.604840e+00
-1.592268e+00
-1.579083e+00
-1.565480e+00
-1.551599e+00
-1.537510e+00
-1.523229e+00
-1.508727e+00
-1.493955e+00
-1.478849e+00
-1.463351e+00
-1.447401e+00
-1.430938e+00
-1.413893e+00
-1.396192e+00
-1.377750e+00
-1.358478e+00
-1.338286e+00
-1.317092e+00
-1.294833e+00
-1.271471e+00
-1.246999e+00
-1.221434e+00
-1.194812e+00
-1.167176e+00
-1.138570e+00
-1.109042e+00
-1.078645e+00
-1.047448e+00
-1.015544e+00
-9.830481e-01
-9.501100e-01
-9.169091e-01
-8.836496e-01
-8.505461e-01
-8.178028e-01
-7.855936e-01
-7.540459e-01
-7.232331e-01
-6.931736e-01
-6.638361e-01
-6.351460e-01
-6.069939e-01
-5.792446e-01
-5.517461e-01
-5.243350e-01
-4.968386e-01
-4.690736e-01
-4.408455e-01
-4.119512e-01
-3.821854e-01
-3.513527e-01
-3.192788e-01
-2.858189e-01
-2.508622e-01
-2.143342e-01
-1.761959e-01
-1.364393e-01
-9.508165e-02
-5.216012e-02
-7.728006e-03
3.814627e-02
8.537800e-02
1.338641e-01
1.834842e-01
2.341073e-01
2.856028e-01
3.378504e-01
3.907458e-01
4.442008e-01
4.981412e-01
5.525037e-01
6.072356e-01
6.622957e-01
7.176537e-01
7.732899e-01
8.291931e-01
8.853588e-01
9.417882e-01
9.984855e-01
1.055451e+00
1.112666e+00
1.170076e+00
1.227581e+00
1.285031e+00
1.342234e+00
1.398977e+00
1.455035e+00
1.510195e+00
1.564254e+00
1.617030e+00
1.668370e+00
1.718150e+00
1.766282e+00
1.812704e+00
1.857373e+00
1.900255e+00
1.941319e+00
1.980535e+00
2.017879e+00
2.053333e+00
2.086889e+00
2.118539e+00
2.148267e+00
2.176039e+00
2.201792e+00
2.225428e+00
2.246820e+00
2.265823e+00
2.282288e+00
2.296083e+00
2.307099e+00
2.315260e+00
2.320532e+00
2.322930e+00
2.322517e+00
2.319409e+00
2.313756e+00
2.305731e+00
2.295506e+00
2.283244e+00
2.269080e+00
2.253122e+00
2.235450e+00
2.216118e+00
2.195167e+00
2.172629e+00
2.148545e+00
2.122964e+00
2.095958e+00
2.067623e+00
2.038085e+00
2.007491e+00
1.976003e+00
1.943791e+00
1.911019e+00
1.877850e+00
1.844434e+00
1.810918e+00
1.777451e+00
1.744182e+00
1.711273e+00
1.678895e+00
1.647229e+00
1.616462e+00
1.586786e+00
1.558385e+00
1.531434e+00
1.506094e+00
1.482513e+00
1.460830e+00
1.441170e+00
1.423640e+00
1.408338e+00
1.395351e+00
1.384765e+00
1.376653e+00
1.371065e+00
1.368016e+00
1.367480e+00
1.369395e+00
1.373663e+00
1.380157e+00
1.388723e+00
1.399185e+00
1.411354e+00
1.425035e+00
1.440051e+00
1.456253e+00
1.473533e+00
1.491825e+00
1.511102e+00
1.531365e+00
1.552641e+00
1.574962e+00
1.598357e+00
1.622836e+00
1.648379e+00
1.674933e+00
1.702420e+00
1.730740e+00
1.759782e+00
1.789429e+00
1.819560e+00
1.850053e+00
1.880788e+00
1.911640e+00
1.942492e+00
1.973236e+00
2.003788e+00
2.034100e+00
2.064168e+00
2.094047e+00
2.123846e+00
2.153729e+00
2.183910e+00
2.214622e+00
2.246094e+00
2.278506e+00
2.311963e+00
2.346474e+00
2.381956e+00
2.418253e+00
2.455161e+00
2.492454e+00
2.529905e+00
2.567293e+00
2.604414e+00
2.641080e+00
2.677122e+00
2.712387e+00
2.746739e+00
2.780065e+00
2.812289e+00
2.843391e+00
2.873429e+00
2.902546e+00
2.930963e+00
2.958953e+00
2.986802e+00
3.014773e+00
3.043070e+00
3.071824e+00
3.101082e+00
3.130813e+00
3.160922e+00
3.191275e+00
3.221721e+00
3.252110e+00
3.282299e+00
3.312155e+00
3.341551e+00
3.370359e+00
3.398445e+00
3.425670e+00
3.451899e+00
3.477013e+00
3.500932e+00
3.523627e+00
3.545127e+00
3.565524e+00
3.584952e+00
3.603580e+00
3.621589e+00
3.639169e+00
3.656507e+00
3.673781e+00
3.691159e+00
3.708800e+00
3.726852e+00
3.745451e+00
3.764716e+00
3.784753e+00
3.805642e+00
3.827438e+00
3.850162e+00
3.873800e+00
3.898306e+00
3.923601e+00
3.949579e+00
3.976110e+00
4.003043e+00
4.030210e+00
4.057440e+00
4.084568e+00
4.111444e+00
4.137945e+00
4.163984e+00
4.189514e+00
4.214531e+00
4.239065e+00
4.263169e+00
4.286902e+00
4.310310e+00
4.333405e+00
4.356168e+00
4.378538e+00
4.400429e+00
4.421737e+00
4.442356e+00
4.462193e+00
4.481180e+00
4.499288e+00
4.516521e+00
4.532915e+00
4.548527e+00
4.563421e+00
4.577664e+00
4.591314e+00
4.604422e+00
4.617023e+00
4.629141e+00
4.640791e+00
4.651981e+00
4.662722e+00
4.673022e+00
4.682891e+00
4.692335e+00
4.701361e+00
4.709972e+00
4.718164e+00
4.725926e+00
4.733241e+00
4.740090e+00
4.746472e+00
4.752413e+00
4.757989e+00
4.763328e+00
4.768614e+00
4.774076e+00
4.779969e+00
4.786552e+00
4.794068e+00
4.802723e+00
4.812685e+00
4.824072e+00
4.836965e+00
4.851412e+00
4.867445e+00
4.885082e+00
4.904324e+00
4.925151e+00
4.947512e+00
4.971310e+00
4.996394e+00
5.022549e+00
5.049497e+00
5.076911e+00
5.104441e+00
5.131740e+00
5.158499e+00
5.184468e+00
5.209464e+00
5.233366e+00
5.256090e+00
5.277574e+00
5.297756e+00
5.316569e+00
5.333931e+00
5.349742e+00
5.363894e+00
5.376279e+00
5.386812e+00
5.395444e+00
5.402178e+00
5.407074e+00
5.410251e+00
5.411882e+00
5.412182e+00
5.411399e+00
5.409794e+00
5.407627e+00
5.405146e+00
5.402575e+00
5.400108e+00
5.397898e+00
5.396051e+00
5.394615e+00
5.393583e+00
5.392898e+00
5.392474e+00
5.392208e+00
5.391991e+00
5.391716e+00
5.391278e+00
5.390575e+00
5.389515e+00
5.388025e+00
5.386061e+00
5.383618e+00
5.380730e+00
5.377473e+00
5.373951e+00
5.370297e+00
5.366655e+00
5.363176e+00
5.360000e+00
5.357245e+00
5.354997e+00
5.353298e+00
5.352153e+00
5.351533e+00
5.351378e+00
5.351618e+00
5.352175e+00
5.352980e+00
5.353977e+00
5.355131e+00
5.356429e+00
5.357877e+00
5.359496e+00
5.361317e+00
5.363377e+00
5.365708e+00
5.368333e+00
5.371249e+00
5.374435e+00
5.377840e+00
5.381396e+00
5.385012e+00
5.388577e+00
5.391959e+00
5.395010e+00
5.397567e+00
5.399464e+00
5.400540e+00
5.400653e+00
5.399695e+00
5.397592e+00
5.394307e+00
5.389832e+00
5.384185e+00
5.377402e+00
5.369536e+00
5.360657e+00
5.350844e+00
5.340193e+00
5.328817e+00
5.316856e+00
5.304480e+00
5.291891e+00
5.279317e+00
5.267002e+00
5.255186e+00
5.244101e+00
5.233966e+00
5.224975e+00
5.217306e+00
5.211116e+00
5.206551e+00
5.203750e+00
5.202853e+00
5.203997e+00
5.207311e+00
5.212911e+00
5.220896e+00
5.231340e+00
5.244291e+00
5.259762e+00
5.277720e+00
5.298088e+00
5.320747e+00
5.345561e+00
5.372395e+00
5.401142e+00
5.431725e+00
5.464100e+00
5.498246e+00
5.534160e+00
5.571845e+00
5.611292e+00
5.652465e+00
5.695277e+00
5.739590e+00
5.785210e+00
5.831912e+00
5.879457e+00
5.927617e+00
5.976194e+00
6.025036e+00
6.074049e+00
6.123193e+00
6.172465e+00
6.221888e+00
6.271495e+00
6.321315e+00
6.371362e+00
6.421635e+00
6.472108e+00
6.522741e+00
6.573482e+00
6.624280e+00
6.675092e+00
6.725884e+00
6.776632e+00
6.827316e+00
6.877908e+00
6.928367e+00
6.978631e+00
7.028614e+00
7.078209e+00
7.127286e+00
7.175706e+00
7.223324e+00
7.270007e+00
7.315640e+00
7.360137e+00
7.403446e+00
7.445556e+00
7.486487e+00
7.526281e+00
7.564978e+00
7.602607e+00
7.639170e+00
7.674642e+00
7.708968e+00
7.742082e+00
7.773907e+00
7.804373e+00
7.833427e+00
7.861042e+00
7.887233e+00
7.912061e+00
7.935637e+00
7.958117e+00
7.979698e+00
8.000606e+00
8.021084e+00
8.041375e+00
8.061709e+00
8.082287e+00
8.103271e+00
8.124781e+00
8.146901e+00
8.169694e+00
8.193214e+00
8.217525e+00
8.242703e+00
8.268834e+00
8.296009e+00
8.324306e+00
8.353779e+00
8.384435e+00
8.416233e+00
8.449080e+00
8.482834e+00
8.517320e+00
8.552339e+00
8.587679e+00
8.623133e+00
8.658504e+00
8.693618e+00
8.728315e+00
8.762456e+00
8.795909e+00
8.828554e+00
8.860281e+00
8.890984e+00
8.920564e+00
8.948930e+00
8.975996e+00
9.001684e+00
9.025932e+00
9.048694e+00
9.069950e+00
9.089708e+00
9.108013e+00
9.124940e+00
9.140603e+00
9.155146e+00
9.168742e+00
9.181584e+00
9.193877e+00
9.205830e+00
9.217651e+00
9.229530e+00
9.241625e+00
9.254038e+00
9.266800e+00
9.279861e+00
9.293099e+00
9.306327e+00
9.319323e+00
9.331849e+00
9.343684e+00
9.354632e+00
9.364541e+00
9.373301e+00
9.380848e+00
9.387162e+00
9.392263e+00
9.396201e+00
9.399041e+00
9.400843e+00
9.401657e+00
9.401513e+00
9.400428e+00
9.398411e+00
9.395476e+00
9.391652e+00
9.386985e+00
9.381547e+00
9.375423e+00
9.368706e+00
9.361489e+00
9.353855e+00
9.345878e+00
9.337619e+00
9.329135e+00
9.320470e+00
9.311665e+00
9.302745e+00
9.293720e+00
9.284585e+00
9.275317e+00
9.265892e+00
9.256284e+00
9.246479e+00
9.236474e+00
9.226277e+00
9.215910e+00
9.205404e+00
9.194793e+00
9.184100e+00
9.173329e+00
9.162452e+00
9.151410e+00
9.140115e+00
9.128458e+00
9.116323e+00
9.103591e+00
9.090151e+00
9.075909e+00
9.060781e+00
9.044698e+00
9.027603e+00
9.009452e+00
8.990229e+00
8.969950e+00
8.948669e+00
8.926474e+00
8.903473e+00
8.879783e+00
8.855510e+00
8.830735e+00
8.805509e+00
8.779845e+00
8.753736e+00
8.727160e+00
8.700100e+00
8.672547e+00
8.644512e+00
8.616020e+00
8.587106e+00
8.557816e+00
8.528197e+00
8.498296e+00
8.468158e+00
8.437828e+00
8.407346e+00
8.376751e+00
8.346063e+00
8.315281e+00
8.284370e+00
8.253248e+00
8.221798e+00
8.189871e+00
8.157305e+00
8.123947e+00
8.089667e+00
8.054367e+00
8.017990e+00
7.980513e+00
7.941943e+00
7.902301e+00
7.861614e+00
7.819911e+00
7.777226e+00
7.733605e+00
7.689117e+00
7.643865e+00
7.597981e+00
7.551629e+00
7.504987e+00
7.458242e+00
7.411567e+00
7.365109e+00
7.318984e+00
7.273275e+00
7.228040e+00
7.183339e+00
7.139244e+00
7.095859e+00
7.053318e+00
7.011785e+00
6.971444e+00
6.932486e+00
6.895102e+00
6.859461e+00
6.825705e+00
6.793932e+00
6.764191e+00
6.736485e+00
6.710775e+00
6.686995e+00
6.665057e+00
6.644864e+00
6.626318e+00
6.609323e+00
6.593794e+00
6.579656e+00
6.566845e+00
6.555306e+00
6.544991e+00
6.535863e+00
6.527896e+00
6.521085e+00
6.515446e+00
6.511016e+00
6.507851e+00
6.506017e+00
6.505584e+00
6.506622e+00
6.509191e+00
6.513345e+00
6.519125e+00
6.526561e+00
6.535675e+00
6.546476e+00
6.558971e+00
6.573158e+00
6.589036e+00
6.606606e+00
6.625878e+00
6.646872e+00
6.669621e+00
6.694165e+00
6.720546e+00
6.748809e+00
6.778990e+00
6.811117e+00
6.845202e+00
6.881237e+00
6.919196e+00
6.959030e+00
7.000676e+00
7.044058e+00
7.089085e+00
7.135646e+00
7.183600e+00
7.232771e+00
7.282945e+00
7.333881e+00
7.385326e+00
7.437031e+00
7.488758e+00
7.540289e+00
7.591426e+00
7.642006e+00
7.691899e+00
7.741013e+00
7.789289e+00
7.836691e+00
7.883194e+00
7.928778e+00
7.973420e+00
8.017089e+00
8.059751e+00
8.101363e+00
8.141879e+00
8.181247e+00
8.219410e+00
8.256311e+00
8.291895e+00
8.326122e+00
8.358967e+00
8.390434e+00
8.420555e+00
8.449388e+00
8.477012e+00
8.503508e+00
8.528950e+00
8.553390e+00
8.576845e+00
8.599296e+00
8.620691e+00
8.640949e+00
8.659976e+00
8.677677e+00
8.693968e+00
8.708782e+00
8.722079e+00
8.733850e+00
8.744125e+00
8.752980e+00
8.760541e+00
8.766976e+00
8.772487e+00
8.777277e+00
8.781532e+00
8.785398e+00
8.788974e+00
8.792304e+00
8.795374e+00
8.798112e+00
8.800407e+00
8.802123e+00
8.803124e+00
8.803288e+00
8.802520e+00
8.800758e+00
8.797966e+00
8.794133e+00
8.789264e+00
8.783364e+00
8.776439e+00
8.768480e+00
8.759459e+00
8.749329e+00
8.738021e+00
8.725451e+00
8.711529e+00
8.696165e+00
8.679289e+00
8.660853e+00
8.640842e+00
8.619273e+00
8.596192e+00
8.571674e+00
8.545808e+00
8.518695e+00
8.490430e+00
8.461094e+00
8.430746e+00
8.399418e+00
8.367112e+00
8.333813e+00
8.299494e+00
8.264131e+00
8.227706e+00
8.190211e+00
8.151647e+00
8.112019e+00
8.071339e+00
8.029632e+00
7.986932e+00
7.943281e+00
7.898734e+00
7.853355e+00
7.807219e+00
7.760407e+00
7.713000e+00
7.665072e+00
7.616682e+00
7.567870e+00
7.518659e+00
7.469054e+00
7.419041e+00
7.368589e+00
7.317649e+00
7.266153e+00
7.214026e+00
7.161187e+00
7.107557e+00
7.053062e+00
6.997642e+00
6.941253e+00
6.883878e+00
6.825544e+00
6.766318e+00
6.706311e+00
6.645663e+00
6.584529e+00
6.523058e+00
6.461373e+00
6.399561e+00
6.337668e+00
6.275692e+00
6.213599e+00
6.151328e+00
6.088814e+00
6.026004e+00
5.962867e+00
5.899406e+00
5.835654e+00
5.771671e+00
5.707538e+00
5.643361e+00
5.579257e+00
5.515368e+00
5.451852e+00
5.388886e+00
5.326668e+00
5.265410e+00
5.205326e+00
5.146621e+00
5.089477e+00
5.034039e+00
4.980413e+00
4.928667e+00
4.878833e+00
4.830913e+00
4.784884e+00
4.740712e+00
4.698351e+00
4.657746e+00
4.618838e+00
4.581555e+00
4.545820e+00
4.511548e+00
4.478646e+00
4.447024e+00
4.416600e+00
4.387312e+00
4.359132e+00
4.332063e+00
4.306143e+00
4.281430e+00
4.257994e+00
4.235904e+00
4.215217e+00
4.195967e+00
4.178157e+00
4.161755e+00
4.146697e+00
4.132897e+00
4.120261e+00
4.108696e+00
4.098121e+00
4.088475e+00
4.079733e+00
4.071907e+00
4.065055e+00
4.059277e+00
4.054699e+00
4.051458e+00
4.049687e+00
4.049505e+00
4.051011e+00
4.054282e+00
4.059372e+00
4.066309e+00
4.075107e+00
4.085766e+00
4.098276e+00
4.112616e+00
4.128756e+00
4.146659e+00
4.166281e+00
4.187570e+00
4.210465e+00
4.234897e+00
4.260789e+00
4.288064e+00
4.316645e+00
4.346448e+00
4.377383e+00
4.409344e+00
4.442208e+00
4.475836e+00
4.510072e+00
4.544750e+00
4.579694e+00
4.614727e+00
4.649677e+00
4.684387e+00
4.718723e+00
4.752580e+00
4.785887e+00
4.818607e+00
4.850733e+00
4.882278e+00
4.913267e+00
4.943721e+00
4.973658e+00
5.003083e+00
5.031989e+00
5.060360e+00
5.088170e+00
5.115389e+00
5.141991e+00
5.167953e+00
5.193249e+00
5.217845e+00
5.241694e+00
5.264733e+00
5.286890e+00
5.308094e+00
5.328281e+00
5.347413e+00
5.365481e+00
5.382515e+00
5.398581e+00
5.413776e+00
5.428220e+00
5.442047e+00
5.455403e+00
5.468438e+00
5.481295e+00
5.494114e+00
5.507021e+00
5.520138e+00
5.533577e+00
5.547446e+00
5.561837e+00
