EVENT_NAME: CENTRAL_TURKEY
EVENT_ID: INT-20230206_0000008
EVENT_DATE_YYYYMMDD: 20230206
EVENT_TIME_HHMMSS: 011736
EVENT_LATITUDE_DEGREE: 37.1700
EVENT_LONGITUDE_DEGREE: 37.0800
EVENT_DEPTH_KM: 20.0
HYPOCENTER_REFERENCE: EMSC-CSEM
MAGNITUDE_W: 7.8
MAGNITUDE_W_REFERENCE: EMSC-CSEM
MAGNITUDE_L: 
MAGNITUDE_L_REFERENCE: 
FOCAL_MECHANISM: Strike-slip faulting
NETWORK: TK
STATION_CODE: 4612
STATION_NAME: None
STATION_LATITUDE_DEGREE: 38.023950
STATION_LONGITUDE_DEGREE: 36.481870
STATION_ELEVATION_M: 1340
LOCATION: 
SENSOR_DEPTH_M: 0.0
VS30_M/S: 246
SITE_CLASSIFICATION_EC8: C
MORPHOLOGIC_CLASSIFICATION: 
EPICENTRAL_DISTANCE_KM: 108.5
EARTHQUAKE_BACKAZIMUTH_DEGREE: 331.1
DATE_TIME_FIRST_SAMPLE_YYYYMMDD_HHMMSS: 20230206_011731.480
DATE_TIME_FIRST_SAMPLE_PRECISION: milliseconds
SAMPLING_INTERVAL_S: 0.005000
NDATA: 25000
DURATION_S: 125.000
STREAM: HNN
UNITS: cm
INSTRUMENT: HN
INSTRUMENT_ANALOG/DIGITAL: D
INSTRUMENTAL_FREQUENCY_HZ: 
INSTRUMENTAL_DAMPING: 
FULL_SCALE_G: 
N_BIT_DIGITAL_CONVERTER: 
PGD_CM: -22.507527
TIME_PGD_S: 53.880000
BASELINE_CORRECTION: BASELINE REMOVED
FILTER_TYPE: BUTTERWORTH
FILTER_ORDER: 2
LOW_CUT_FREQUENCY_HZ: 0.030
HIGH_CUT_FREQUENCY_HZ: 40.000
LATE/NORMAL_TRIGGERED: NT
DATABASE_VERSION: 0.5
HEADER_FORMAT: DYNA 1.2
DATA_TYPE: DISPLACEMENT
PROCESSING: manual (Paolucci et al., 2011)
DATA_TIMESTAMP_YYYYMMDD_HHMMSS: 20230522_192049.037
DATA_LICENSE: D (network default license)
DATA_CITATION: Luzi L., Lanzano G., Felicetta C., D?Amico M. C., Russo E., Sgobba S., Pacor, F., & ORFEUS Working Group 5 (2020). Engineering Strong Motion Database (ESM) (Version 2.0). Istituto Nazionale di Geofisica e Vulcanologia (INGV). https://doi.org/10.13127/ESM.2
DATA_CREATOR: ESM working group
ORIGINAL_DATA_MEDIATOR_CITATION: afad
ORIGINAL_DATA_MEDIATOR: afad
ORIGINAL_DATA_CREATOR_CITATION: Disaster And Emergency Management Authority. (1973). Turkish National Strong Motion Network. Department of Earthquake, Disaster and Emergency Management Authority. https://doi.org/10.7914/SN/TK http://www.fdsn.org/networks/detail/TK/
ORIGINAL_DATA_CREATOR: network: TK (Turkish National Strong Motion Network (TNSMN)); owner: Disaster and Emergency Management Authority (AFAD)
USER1: 
USER2: 
USER3: 
USER4: 
USER5: 
[...]
-1.957431e+00
-1.991561e+00
-2.026737e+00
-2.062920e+00
-2.100082e+00
-2.138213e+00
-2.177319e+00
-2.217413e+00
-2.258509e+00
-2.300616e+00
-2.343724e+00
-2.387803e+00
-2.432801e+00
-2.478641e+00
-2.525225e+00
-2.572442e+00
-2.620172e+00
-2.668294e+00
-2.716694e+00
-2.765276e+00
-2.813970e+00
-2.862740e+00
-2.911588e+00
-2.960554e+00
-3.009709e+00
-3.059147e+00
-3.108970e+00
-3.159273e+00
-3.210132e+00
-3.261597e+00
-3.313687e+00
-3.366392e+00
-3.419677e+00
-3.473490e+00
-3.527770e+00
-3.582452e+00
-3.637465e+00
-3.692720e+00
-3.748103e+00
-3.803465e+00
-3.858627e+00
-3.913378e+00
-3.967494e+00
-4.020743e+00
-4.072905e+00
-4.123784e+00
-4.173218e+00
-4.221089e+00
-4.267331e+00
-4.311933e+00
-4.354938e+00
-4.396442e+00
-4.436575e+00
-4.475483e+00
-4.513308e+00
-4.550178e+00
-4.586202e+00
-4.621477e+00
-4.656098e+00
-4.690169e+00
-4.723823e+00
-4.757221e+00
-4.790551e+00
-4.824008e+00
-4.857774e+00
-4.891989e+00
-4.926741e+00
-4.962063e+00
-4.997940e+00
-5.034321e+00
-5.071137e+00
-5.108315e+00
-5.145786e+00
-5.183490e+00
-5.221368e+00
-5.259356e+00
-5.297382e+00
-5.335373e+00
-5.373264e+00
-5.411015e+00
-5.448628e+00
-5.486149e+00
-5.523669e+00
-5.561300e+00
-5.599147e+00
-5.637274e+00
-5.675681e+00
-5.714293e+00
-5.752978e+00
-5.791568e+00
-5.829889e+00
-5.867785e+00
-5.905140e+00
-5.941883e+00
-5.977996e+00
-6.013498e+00
-6.048432e+00
-6.082847e+00
-6.116778e+00
-6.150236e+00
-6.183199e+00
-6.215604e+00
-6.247349e+00
-6.278304e+00
-6.308327e+00
-6.337287e+00
-6.365075e+00
-6.391616e+00
-6.416867e+00
-6.440819e+00
-6.463489e+00
-6.484919e+00
-6.505165e+00
-6.524292e+00
-6.542378e+00
-6.559508e+00
-6.575767e+00
-6.591234e+00
-6.605973e+00
-6.620030e+00
-6.633427e+00
-6.646163e+00
-6.658213e+00
-6.669530e+00
-6.680051e+00
-6.689704e+00
-6.698421e+00
-6.706140e+00
-6.712821e+00
-6.718445e+00
-6.723013e+00
-6.726545e+00
-6.729062e+00
-6.730578e+00
-6.731094e+00
-6.730584e+00
-6.729006e+00
-6.726300e+00
-6.722409e+00
-6.717280e+00
-6.710886e+00
-6.703225e+00
-6.694337e+00
-6.684291e+00
-6.673187e+00
-6.661142e+00
-6.648283e+00
-6.634744e+00
-6.620663e+00
-6.606184e+00
-6.591452e+00
-6.576607e+00
-6.561781e+00
-6.547096e+00
-6.532667e+00
-6.518602e+00
-6.505002e+00
-6.491957e+00
-6.479541e+00
-6.467811e+00
-6.456803e+00
-6.446542e+00
-6.437048e+00
-6.428348e+00
-6.420479e+00
-6.413481e+00
-6.407387e+00
-6.402216e+00
-6.397973e+00
-6.394641e+00
-6.392193e+00
-6.390591e+00
-6.389794e+00
-6.389761e+00
-6.390450e+00
-6.391817e+00
-6.393814e+00
-6.396397e+00
-6.399533e+00
-6.403210e+00
-6.407444e+00
-6.412279e+00
-6.417789e+00
-6.424062e+00
-6.431188e+00
-6.439246e+00
-6.448282e+00
-6.458316e+00
-6.469336e+00
-6.481322e+00
-6.494253e+00
-6.508136e+00
-6.523011e+00
-6.538949e+00
-6.556042e+00
-6.574372e+00
-6.593994e+00
-6.614912e+00
-6.637083e+00
-6.660417e+00
-6.684807e+00
-6.710145e+00
-6.736339e+00
-6.763323e+00
-6.791048e+00
-6.819469e+00
-6.848529e+00
-6.878146e+00
-6.908203e+00
-6.938558e+00
-6.969063e+00
-6.999582e+00
-7.030007e+00
-7.060273e+00
-7.090355e+00
-7.120271e+00
-7.150081e+00
-7.179881e+00
-7.209798e+00
-7.239980e+00
-7.270584e+00
-7.301767e+00
-7.333672e+00
-7.366422e+00
-7.400111e+00
-7.434806e+00
-7.470550e+00
-7.507356e+00
-7.545217e+00
-7.584098e+00
-7.623947e+00
-7.664685e+00
-7.706210e+00
-7.748395e+00
-7.791093e+00
-7.834136e+00
-7.877345e+00
-7.920527e+00
-7.963491e+00
-8.006043e+00
-8.047989e+00
-8.089138e+00
-8.129295e+00
-8.168263e+00
-8.205850e+00
-8.241881e+00
-8.276213e+00
-8.308750e+00
-8.339456e+00
-8.368359e+00
-8.395542e+00
-8.421131e+00
-8.445277e+00
-8.468142e+00
-8.489888e+00
-8.510675e+00
-8.530660e+00
-8.549986e+00
-8.568785e+00
-8.587173e+00
-8.605248e+00
-8.623089e+00
-8.640758e+00
-8.658293e+00
-8.675712e+00
-8.693001e+00
-8.710124e+00
-8.727023e+00
-8.743631e+00
-8.759881e+00
-8.775719e+00
-8.791106e+00
-8.806019e+00
-8.820441e+00
-8.834360e+00
-8.847746e+00
-8.860550e+00
-8.872702e+00
-8.884115e+00
-8.894704e+00
-8.904398e+00
-8.913151e+00
-8.920953e+00
-8.927835e+00
-8.933866e+00
-8.939147e+00
-8.943803e+00
-8.947980e+00
-8.951842e+00
-8.955575e+00
-8.959383e+00
-8.963487e+00
-8.968111e+00
-8.973473e+00
-8.979767e+00
-8.987149e+00
-8.995723e+00
-9.005535e+00
-9.016577e+00
-9.028792e+00
-9.042086e+00
-9.056340e+00
-9.071428e+00
-9.087233e+00
-9.103663e+00
-9.120668e+00
-9.138240e+00
-9.156410e+00
-9.175240e+00
-9.194812e+00
-9.215227e+00
-9.236591e+00
-9.259005e+00
-9.282561e+00
-9.307326e+00
-9.333340e+00
-9.360621e+00
-9.389164e+00
-9.418949e+00
-9.449939e+00
-9.482089e+00
-9.515338e+00
-9.549611e+00
-9.584812e+00
-9.620829e+00
-9.657536e+00
-9.694805e+00
-9.732513e+00
-9.770558e+00
-9.808856e+00
-9.847346e+00
-9.885986e+00
-9.924747e+00
-9.963607e+00
-1.000254e+01
-1.004152e+01
-1.008050e+01
-1.011947e+01
-1.015839e+01
-1.019731e+01
-1.023628e+01
-1.027540e+01
-1.031481e+01
-1.035464e+01
-1.039501e+01
-1.043601e+01
-1.047768e+01
-1.052005e+01
-1.056311e+01
-1.060687e+01
-1.065133e+01
-1.069654e+01
-1.074252e+01
-1.078933e+01
-1.083700e+01
-1.088556e+01
-1.093498e+01
-1.098522e+01
-1.103617e+01
-1.108770e+01
-1.113965e+01
-1.119183e+01
-1.124405e+01
-1.129611e+01
-1.134784e+01
-1.139906e+01
-1.144961e+01
-1.149930e+01
-1.154798e+01
-1.159550e+01
-1.164173e+01
-1.168660e+01
-1.173013e+01
-1.177237e+01
-1.181347e+01
-1.185359e+01
-1.189293e+01
-1.193165e+01
-1.196986e+01
-1.200766e+01
-1.204509e+01
-1.208218e+01
-1.211900e+01
-1.215562e+01
-1.219215e+01
-1.222875e+01
-1.226560e+01
-1.230284e+01
-1.234062e+01
-1.237900e+01
-1.241801e+01
-1.245763e+01
-1.249780e+01
-1.253848e+01
-1.257959e+01
-1.262112e+01
-1.266301e+01
-1.270524e+01
-1.274777e+01
-1.279053e+01
-1.283345e+01
-1.287641e+01
-1.291932e+01
-1.296204e+01
-1.300446e+01
-1.304643e+01
-1.308783e+01
-1.312851e+01
-1.316832e+01
-1.320712e+01
-1.324473e+01
-1.328099e+01
-1.331572e+01
-1.334873e+01
-1.337984e+01
-1.340891e+01
-1.343578e+01
-1.346035e+01
-1.348249e+01
-1.350215e+01
-1.351926e+01
-1.353379e+01
-1.354573e+01
-1.355510e+01
-1.356194e+01
-1.356634e+01
-1.356844e+01
-1.356841e+01
-1.356648e+01
-1.356288e+01
-1.355787e+01
-1.355172e+01
-1.354465e+01
-1.353689e+01
-1.352862e+01
-1.352000e+01
-1.351120e+01
-1.350234e+01
-1.349357e+01
-1.348500e+01
-1.347674e+01
-1.346887e+01
-1.346143e+01
-1.345443e+01
-1.344786e+01
-1.344169e+01
-1.343586e+01
-1.343033e+01
-1.342506e+01
-1.342006e+01
-1.341534e+01
-1.341095e+01
-1.340695e+01
-1.340340e+01
-1.340036e+01
-1.339784e+01
-1.339581e+01
-1.339420e+01
-1.339288e+01
-1.339168e+01
-1.339046e+01
-1.338907e+01
-1.338745e+01
-1.338561e+01
-1.338362e+01
-1.338166e+01
-1.337993e+01
-1.337865e+01
-1.337800e+01
-1.337815e+01
-1.337917e+01
-1.338109e+01
-1.338388e+01
-1.338747e+01
-1.339182e+01
-1.339688e+01
-1.340267e+01
-1.340925e+01
-1.341675e+01
-1.342530e+01
-1.343506e+01
-1.344617e+01
-1.345876e+01
-1.347289e+01
-1.348861e+01
-1.350590e+01
-1.352471e+01
-1.354497e+01
-1.356662e+01
-1.358962e+01
-1.361393e+01
-1.363957e+01
-1.366656e+01
-1.369497e+01
-1.372484e+01
-1.375622e+01
-1.378914e+01
-1.382363e+01
-1.385969e+01
-1.389731e+01
-1.393650e+01
-1.397721e+01
-1.401938e+01
-1.406291e+01
-1.410766e+01
-1.415347e+01
-1.420016e+01
-1.424756e+01
-1.429556e+01
-1.434408e+01
-1.439309e+01
-1.444264e+01
-1.449279e+01
-1.454363e+01
-1.459522e+01
-1.464763e+01
-1.470087e+01
-1.475495e+01
-1.480985e+01
-1.486554e+01
-1.492204e+01
-1.497935e+01
-1.503750e+01
-1.509653e+01
-1.515649e+01
-1.521740e+01
-1.527926e+01
-1.534204e+01
-1.540567e+01
-1.547004e+01
-1.553505e+01
-1.560060e+01
-1.566663e+01
-1.573311e+01
-1.580008e+01
-1.586759e+01
-1.593571e+01
-1.600449e+01
-1.607396e+01
-1.614411e+01
-1.621487e+01
-1.628617e+01
-1.635788e+01
-1.642991e+01
-1.650214e+01
-1.657448e+01
-1.664684e+01
-1.671916e+01
-1.679136e+01
-1.686339e+01
-1.693519e+01
-1.700670e+01
-1.707784e+01
-1.714858e+01
-1.721887e+01
-1.728870e+01
-1.735808e+01
-1.742703e+01
-1.749560e+01
-1.756383e+01
-1.763174e+01
-1.769933e+01
-1.776654e+01
-1.783327e+01
-1.789936e+01
-1.796462e+01
-1.802886e+01
-1.809187e+01
-1.815350e+01
-1.821364e+01
-1.827224e+01
-1.832932e+01
-1.838497e+01
-1.843928e+01
-1.849235e+01
-1.854421e+01
-1.859488e+01
-1.864429e+01
-1.869233e+01
-1.873892e+01
-1.878397e+01
-1.882744e+01
-1.886935e+01
-1.890979e+01
-1.894885e+01
-1.898665e+01
-1.902328e+01
-1.905882e+01
-1.909331e+01
-1.912676e+01
-1.915919e+01
-1.919065e+01
-1.922121e+01
-1.925101e+01
-1.928021e+01
-1.930899e+01
-1.933753e+01
-1.936598e+01
-1.939445e+01
-1.942299e+01
-1.945163e+01
-1.948035e+01
-1.950910e+01
-1.953786e+01
-1.956656e+01
-1.959513e+01
-1.962351e+01
-1.965161e+01
-1.967934e+01
-1.970661e+01
-1.973335e+01
-1.975948e+01
-1.978493e+01
-1.980968e+01
-1.983367e+01
-1.985687e+01
-1.987924e+01
-1.990073e+01
-1.992128e+01
-1.994087e+01
-1.995946e+01
-1.997707e+01
-1.999370e+01
-2.000940e+01
-2.002419e+01
-2.003808e+01
-2.005107e+01
-2.006314e+01
-2.007425e+01
-2.008438e+01
-2.009352e+01
-2.010172e+01
-2.010907e+01
-2.011569e+01
-2.012173e+01
-2.012737e+01
-2.013276e+01
-2.013807e+01
-2.014341e+01
-2.014890e+01
-2.015461e+01
-2.016057e+01
-2.016677e+01
-2.017320e+01
-2.017981e+01
-2.018656e+01
-2.019347e+01
-2.020057e+01
-2.020796e+01
-2.021577e+01
-2.022415e+01
-2.023329e+01
-2.024338e+01
-2.025461e+01
-2.026716e+01
-2.028117e+01
-2.029677e+01
-2.031404e+01
-2.033301e+01
-2.035369e+01
-2.037603e+01
-2.039996e+01
-2.042538e+01
-2.045214e+01
-2.048010e+01
-2.050909e+01
-2.053893e+01
-2.056944e+01
-2.060043e+01
-2.063175e+01
-2.066324e+01
-2.069480e+01
-2.072637e+01
-2.075797e+01
-2.078969e+01
-2.082167e+01
-2.085408e+01
-2.088712e+01
-2.092093e+01
-2.095560e+01
-2.099119e+01
-2.102767e+01
-2.106497e+01
-2.110300e+01
-2.114164e+01
-2.118078e+01
-2.122031e+01
-2.126010e+01
-2.130005e+01
-2.134003e+01
-2.137995e+01
-2.141972e+01
-2.145923e+01
-2.149844e+01
-2.153728e+01
-2.157571e+01
-2.161369e+01
-2.165120e+01
-2.168818e+01
-2.172458e+01
-2.176037e+01
-2.179550e+01
-2.182993e+01
-2.186365e+01
-2.189659e+01
-2.192872e+01
-2.195992e+01
-2.199006e+01
-2.201899e+01
-2.204654e+01
-2.207253e+01
-2.209685e+01
-2.211939e+01
-2.214011e+01
-2.215900e+01
-2.217607e+01
-2.219136e+01
-2.220492e+01
-2.221678e+01
-2.222702e+01
-2.223568e+01
-2.224288e+01
-2.224871e+01
-2.225331e+01
-2.225684e+01
-2.225946e+01
-2.226134e+01
-2.226266e+01
-2.226360e+01
-2.226431e+01
-2.226490e+01
-2.226546e+01
-2.226606e+01
-2.226672e+01
-2.226748e+01
-2.226838e+01
-2.226945e+01
-2.227078e+01
-2.227247e+01
-2.227464e+01
-2.227740e+01
-2.228083e+01
-2.228498e+01
-2.228983e+01
-2.229531e+01
-2.230129e+01
-2.230761e+01
-2.231411e+01
-2.232066e+01
-2.232718e+01
-2.233361e+01
-2.233995e+01
-2.234621e+01
-2.235241e+01
-2.235853e+01
-2.236454e+01
-2.237037e+01
-2.237590e+01
-2.238104e+01
-2.238566e+01
-2.238964e+01
-2.239291e+01
-2.239541e+01
-2.239708e+01
-2.239792e+01
-2.239794e+01
-2.239714e+01
-2.239557e+01
-2.239328e+01
-2.239035e+01
-2.238688e+01
-2.238297e+01
-2.237876e+01
-2.237439e+01
-2.237001e+01
-2.236578e+01
-2.236186e+01
-2.235840e+01
-2.235552e+01
-2.235328e+01
-2.235172e+01
-2.235080e+01
-2.235042e+01
-2.235049e+01
-2.235086e+01
-2.235146e+01
-2.235223e+01
-2.235320e+01
-2.235445e+01
-2.235611e+01
-2.235830e+01
-2.236112e+01
-2.236461e+01
-2.236870e+01
-2.237330e+01
-2.237825e+01
-2.238336e+01
-2.238848e+01
-2.239344e+01
-2.239813e+01
-2.240248e+01
-2.240645e+01
-2.240999e+01
-2.241305e+01
-2.241556e+01
-2.241741e+01
-2.241846e+01
-2.241858e+01
-2.241764e+01
-2.241561e+01
-2.241250e+01
-2.240842e+01
-2.240354e+01
-2.239802e+01
-2.239204e+01
-2.238572e+01
-2.237914e+01
-2.237236e+01
-2.236542e+01
-2.235840e+01
-2.235137e+01
-2.234447e+01
-2.233787e+01
-2.233172e+01
-2.232614e+01
-2.232119e+01
-2.231685e+01
-2.231297e+01
-2.230938e+01
-2.230586e+01
-2.230220e+01
-2.229825e+01
-2.229396e+01
-2.228936e+01
-2.228460e+01
-2.227988e+01
-2.227543e+01
-2.227149e+01
-2.226826e+01
-2.226586e+01
-2.226437e+01
-2.226380e+01
-2.226411e+01
-2.226525e+01
-2.226716e+01
-2.226979e+01
-2.227308e+01
-2.227699e+01
-2.228145e+01
-2.228637e+01
-2.229164e+01
-2.229714e+01
-2.230276e+01
-2.230838e+01
-2.231394e+01
-2.231940e+01
-2.232478e+01
-2.233015e+01
-2.233560e+01
-2.234125e+01
-2.234721e+01
-2.235357e+01
-2.236039e+01
-2.236768e+01
-2.237540e+01
-2.238350e+01
-2.239189e+01
-2.240046e+01
-2.240914e+01
-2.241782e+01
-2.242641e+01
-2.243483e+01
-2.244301e+01
-2.245087e+01
-2.245837e+01
-2.246544e+01
-2.247206e+01
-2.247818e+01
-2.248378e+01
-2.248883e+01
-2.249329e+01
-2.249716e+01
-2.250040e+01
-2.250302e+01
-2.250501e+01
-2.250640e+01
-2.250723e+01
-2.250753e+01
-2.250730e+01
-2.250655e+01
-2.250525e+01
-2.250333e+01
-2.250075e+01
-2.249743e+01
-2.249335e+01
-2.248850e+01
-2.248291e+01
-2.247663e+01
-2.246975e+01
-2.246235e+01
-2.245450e+01
-2.244627e+01
-2.243769e+01
-2.242878e+01
-2.241953e+01
-2.240992e+01
-2.239991e+01
-2.238944e+01
-2.237845e+01
-2.236689e+01
-2.235472e+01
-2.234191e+01
-2.232849e+01
-2.231451e+01
-2.230007e+01
-2.228527e+01
-2.227025e+01
-2.225516e+01
-2.224014e+01
-2.222532e+01
-2.221083e+01
-2.219673e+01
-2.218308e+01
-2.216989e+01
-2.215714e+01
-2.214478e+01
-2.213276e+01
-2.212100e+01
-2.210945e+01
-2.209805e+01
-2.208676e+01
-2.207554e+01
-2.206436e+01
-2.205315e+01
-2.204183e+01
-2.203031e+01
-2.201845e+01
-2.200609e+01
-2.199305e+01
-2.197915e+01
-2.196426e+01
-2.194826e+01
-2.193111e+01
-2.191283e+01
-2.189347e+01
-2.187314e+01
-2.185195e+01
-2.182998e+01
-2.180732e+01
-2.178401e+01
-2.176009e+01
-2.173559e+01
-2.171054e+01
-2.168504e+01
-2.165923e+01
-2.163327e+01
-2.160738e+01
-2.158179e+01
-2.155670e+01
-2.153229e+01
-2.150871e+01
-2.148607e+01
-2.146448e+01
-2.144403e+01
-2.142480e+01
-2.140688e+01
-2.139034e+01
-2.137522e+01
-2.136154e+01
-2.134930e+01
-2.133845e+01
-2.132891e+01
-2.132058e+01
-2.131334e+01
-2.130702e+01
-2.130149e+01
-2.129657e+01
-2.129210e+01
-2.128791e+01
-2.128383e+01
-2.127971e+01
-2.127542e+01
-2.127082e+01
-2.126579e+01
-2.126021e+01
-2.125397e+01
-2.124698e+01
-2.123916e+01
-2.123047e+01
-2.122090e+01
-2.121047e+01
-2.119924e+01
-2.118730e+01
-2.117475e+01
-2.116169e+01
-2.114819e+01
-2.113429e+01
-2.111996e+01
-2.110512e+01
-2.108962e+01
-2.107330e+01
-2.105598e+01
-2.103749e+01
-2.101770e+01
-2.099650e+01
-2.097382e+01
-2.094963e+01
-2.092391e+01
-2.089668e+01
-2.086795e+01
-2.083775e+01
-2.080610e+01
-2.077303e+01
-2.073857e+01
-2.070277e+01
-2.066570e+01
-2.062748e+01
-2.058823e+01
-2.054811e+01
-2.050727e+01
-2.046586e+01
-2.042398e+01
-2.038168e+01
-2.033898e+01
-2.029588e+01
-2.025236e+01
-2.020839e+01
-2.016396e+01
-2.011908e+01
-2.007377e+01
-2.002809e+01
-1.998209e+01
-1.993586e+01
-1.988943e+01
-1.984286e+01
-1.979613e+01
-1.974923e+01
-1.970204e+01
-1.965445e+01
-1.960629e+01
-1.955739e+01
-1.950757e+01
-1.945672e+01
-1.940473e+01
-1.935157e+01
-1.929722e+01
-1.924172e+01
-1.918511e+01
-1.912744e+01
-1.906879e+01
-1.900927e+01
-1.894899e+01
-1.888810e+01
-1.882675e+01
-1.876512e+01
-1.870334e+01
-1.864158e+01
-1.857996e+01
-1.851860e+01
-1.845764e+01
-1.839722e+01
-1.833751e+01
-1.827869e+01
-1.822097e+01
-1.816451e+01
-1.810949e+01
-1.805600e+01
-1.800410e+01
-1.795377e+01
-1.790494e+01
-1.785750e+01
-1.781131e+01
-1.776625e+01
-1.772219e+01
-1.767901e+01
-1.763663e+01
-1.759498e+01
-1.755400e+01
-1.751365e+01
-1.747389e+01
-1.743466e+01
-1.739592e+01
-1.735762e+01
-1.731973e+01
-1.728225e+01
-1.724518e+01
-1.720857e+01
-1.717246e+01
-1.713691e+01
-1.710198e+01
-1.706771e+01
-1.703415e+01
-1.700131e+01
-1.696916e+01
-1.693767e+01
-1.690673e+01
-1.687626e+01
-1.684614e+01
-1.681628e+01
-1.678662e+01
-1.675715e+01
-1.672789e+01
-1.669892e+01
-1.667032e+01
-1.664218e+01
-1.661457e+01
-1.658751e+01
-1.656102e+01
-1.653510e+01
-1.650972e+01
-1.648491e+01
-1.646068e+01
-1.643706e+01
-1.641408e+01
-1.639174e+01
-1.637002e+01
-1.634885e+01
-1.632817e+01
-1.630785e+01
-1.628783e+01
-1.626802e+01
-1.624841e+01
-1.622901e+01
-1.620985e+01
-1.619101e+01
-1.617256e+01
-1.615457e+01
-1.613711e+01
-1.612024e+01
-1.610400e+01
-1.608841e+01
-1.607348e+01
-1.605919e+01
-1.604548e+01
-1.603228e+01
-1.601945e+01
-1.600683e+01
-1.599422e+01
-1.598139e+01
-1.596805e+01
-1.595391e+01
-1.593870e+01
-1.592216e+01
-1.590408e+01
-1.588429e+01
-1.586271e+01
-1.583930e+01
-1.581412e+01
-1.578728e+01
-1.575896e+01
-1.572937e+01
-1.569877e+01
-1.566743e+01
-1.563568e+01
-1.560382e+01
-1.557217e+01
-1.554099e+01
-1.551053e+01
-1.548095e+01
-1.545239e+01
-1.542491e+01
-1.539857e+01
-1.537337e+01
-1.534931e+01
-1.532641e+01
-1.530471e+01
-1.528429e+01
-1.526526e+01
-1.524777e+01
-1.523195e+01
-1.521794e+01
-1.520588e+01
-1.519585e+01
-1.518792e+01
-1.518215e+01
-1.517855e+01
-1.517709e+01
-1.517772e+01
-1.518031e+01
-1.518467e+01
-1.519052e+01
-1.519747e+01
-1.520505e+01
-1.521267e+01
-1.521965e+01
-1.522533e+01
-1.522904e+01
-1.523020e+01
-1.522835e+01
-1.522319e+01
-1.521457e+01
-1.520244e+01
-1.518688e+01
-1.516801e+01
-1.514595e+01
-1.512085e+01
-1.509280e+01
-1.506187e+01
-1.502811e+01
-1.499159e+01
-1.495238e+01
-1.491061e+01
-1.486647e+01
-1.482018e+01
-1.477200e+01
-1.472223e+01
-1.467115e+01
-1.461900e+01
-1.456599e+01
-1.451223e+01
-1.445778e+01
-1.440259e+01
-1.434655e+01
-1.428952e+01
-1.423137e+01
-1.417198e+01
-1.411130e+01
-1.404933e+01
-1.398613e+01
-1.392183e+01
-1.385658e+01
-1.379059e+01
-1.372407e+01
-1.365722e+01
-1.359023e+01
-1.352327e+01
-1.345644e+01
-1.338984e+01
-1.332347e+01
-1.325732e+01
-1.319125e+01
-1.312512e+01
-1.305870e+01
-1.299178e+01
-1.292411e+01
-1.285553e+01
-1.278587e+01
-1.271505e+01
-1.264304e+01
-1.256985e+01
-1.249555e+01
-1.242018e+01
-1.234380e+01
-1.226643e+01
-1.218804e+01
-1.210858e+01
-1.202796e+01
-1.194609e+01
-1.186289e+01
-1.177831e+01
-1.169232e+01
-1.160492e+01
-1.151616e+01
-1.142608e+01
-1.133479e+01
-1.124240e+01
-1.114902e+01
-1.105474e+01
-1.095963e+01
-1.086371e+01
-1.076700e+01
-1.066950e+01
-1.057122e+01
-1.047219e+01
-1.037251e+01
-1.027235e+01
-1.017192e+01
-1.007150e+01
